GLOBALSTAR M084         
1 38040U 11080A   25281.45836948 -.00000121  00000+0 -93569-4 0  9991
2 38040  52.0009  63.6327 0000447 103.0776 297.4748 12.62269293636973
GLOBALSTAR M080         
1 38041U 11080B   25281.42863552 -.00000118  00000+0 -81810-4 0  9992
2 38041  52.0060  65.3550 0001178  85.8352 308.7718 12.62269573637095
GLOBALSTAR M082         
1 38042U 11080C   25281.45351943 -.00000101  00000+0  13822-4 0  9991
2 38042  52.0100  20.7533 0000975  97.4094 341.1387 12.62268891637807
GLOBALSTAR M092         
1 38043U 11080D   25281.49673626 -.00000080  00000+0  13209-3 0  9995
2 38043  52.0063 111.0065 0000852  86.1118 307.8714 12.62266864636266
GLOBALSTAR M090         
1 38044U 11080E   25281.48040777 -.00000100  00000+0  20427-4 0  9994
2 38044  52.0149  14.5468 0000725 115.5058 324.4607 12.62262542637924
GLOBALSTAR M086         
1 38045U 11080F   25281.42581612 -.00000102  00000+0  99124-5 0  9990
2 38045  51.9923  15.0522 0001021 180.2326 257.2459 12.62277806637867
GLOBALSTAR M097         
1 39072U 13005A   25281.43621889 -.00000094  00000+0  56724-4 0  9990
2 39072  52.0044 289.6906 0000432 105.5661 254.5254 12.62266341585111
GLOBALSTAR M093         
1 39073U 13005B   25281.41020170 -.00000103  00000+0  44651-5 0  9993
2 39073  52.0099 283.0211 0000588 115.0101 245.0827 12.62264972585069
